STARLINK-36291          
1 67195U 25304D   26007.83335648  .00005029  00000+0  84437-4 0  9992
2 67195  70.0001 334.1662 0003034 265.1689  51.6100 15.52512055  4660
STARLINK-36239          
1 67196U 25304E   26007.83335648 -.02026702  00000+0 -45866-1 0  9998
2 67196  70.0000 334.1814 0003431 257.9535  45.6567 15.46357629  4666
STARLINK-36283          
1 67197U 25304F   26007.83335648 -.00192598  00000+0 -31895-2 0  9992
2 67197  70.0001 334.1588 0003138 259.3108  63.1890 15.52647193  4661
STARLINK-36267          
1 67198U 25304G   26007.83335648  .00168276  00000+0  26896-2 0  9992
2 67198  70.0001 334.1610 0002911 261.9885  58.6552 15.52424975  4639
STARLINK-36268          
1 67199U 25304H   26007.83335648 -.00014749  00000+0 -23747-3 0  9993
2 67199  70.0002 334.1572 0003034 262.4903  61.9654 15.52519675  4667
STARLINK-36270          
1 67200U 25304J   26007.83335648  .00111267  00000+0  25127-2 0  9990
2 67200  69.9999 334.2009 0003539 269.7195  16.1644 15.42652843  4666
STARLINK-36262          
1 67201U 25304K   26007.83335648 -.02060838  00000+0 -44187-1 0  9998
2 67201  69.9997 334.1631 0003291 262.3065  57.6767 15.47966283  4662
STARLINK-36263          
1 67202U 25304L   26007.83335648 -.01236064  00000+0 -21783-1 0  9991
2 67202  70.0003 334.1512 0003428 269.3763  60.7494 15.52895144  4661
STARLINK-36224          
1 67203U 25304M   26007.83335648  .00169836  00000+0  27130-2 0  9994
2 67203  69.9999 334.1473 0003169 267.9280  64.2055 15.52434819  4669
STARLINK-36185          
1 67204U 25304N   26007.83335648  .00155019  00000+0  24818-2 0  9993
2 67204  70.0001 334.1445 0003122 263.4391  70.6213 15.52427987  4664
STARLINK-36197          
1 67205U 25304P   26007.83335648  .00003879  00000+0  65761-4 0  9994
2 67205  70.0000 334.1435 0003147 264.3711  71.5730 15.52511691  4633
STARLINK-36056          
1 67206U 25304Q   26007.83335648  .00000726  00000+0  14528-4 0  9998
2 67206  70.0002 334.1411 0003279 268.0955  69.7641 15.52515391  4638
